APSTAR 5 (TELSTAR 18)   
1 28364U 04024A   17345.63795966 -.00000300  00000-0  00000+0 0  9997
2 28364   0.0264 299.9188 0003397 325.7081 182.5841  1.00273368 49373
